start=new Date('2022-06-09T00:00:00.000Z').valueOf();
sats=[{"TIME_SYSTEM":"UTC","NORAD_CAT_ID":"47728","PERIAPSIS":"546.117","MEAN_ANOMALY":"298.9110","MEAN_MOTION":"15.06399043","ECCENTRICITY":"0.00015870","LAUNCH_DATE":"2021-03-04","EPHEMERIS_TYPE":"0","INCLINATION":"53.0532","OBJECT_TYPE":"PAYLOAD","CENTER_NAME":"EARTH","TLE_LINE2":"2 47728  53.0532 232.6083 0001587  61.2038 298.9110 15.06399043 71405","GP_ID":"205634499","SITE":"AFETR","PERIOD":"95.592","ARG_OF_PERICENTER":"61.2038","FILE":"3485745","COUNTRY_CODE":"US","CLASSIFICATION_TYPE":"U","DECAY_DATE":null,"REF_FRAME":"TEME","REV_AT_EPOCH":"7140","OBJECT_ID":"2021-017G","MEAN_ELEMENT_THEORY":"SGP4","APOAPSIS":"548.316","OBJECT_NAME":"STARLINK-2131","BSTAR":"0.00007346300000","TLE_LINE1":"1 47728U 21017G   22159.50906850  .00000813  00000-0  73463-4 0  9990","MEAN_MOTION_DDOT":"0.0000000000000","ELEMENT_SET_NO":"999","RA_OF_ASC_NODE":"232.6083","RCS_SIZE":"LARGE","SEMIMAJOR_AXIS":"6925.351","EPOCH":"2022-06-08T12:13:03.518400","MEAN_MOTION_DOT":"0.00000813"},{"MEAN_MOTION_DDOT":"0.0000000000000","RA_OF_ASC_NODE":"176.7802","RCS_SIZE":"LARGE","SEMIMAJOR_AXIS":"6925.334","EPOCH":"2022-06-08T17:41:31.829280","MEAN_MOTION_DOT":"0.00000098","ELEMENT_SET_NO":"999","TLE_LINE1":"1 47729U 21017H   22159.73717395  .00000098  00000-0  25471-4 0  9991","OBJECT_NAME":"STARLINK-2132","BSTAR":"0.00002547100000","APOAPSIS":"548.315","MEAN_ELEMENT_THEORY":"SGP4","OBJECT_ID":"2021-017H","DECAY_DATE":null,"REF_FRAME":"TEME","REV_AT_EPOCH":"7153","CLASSIFICATION_TYPE":"U","FILE":"3486169","ARG_OF_PERICENTER":"54.9577","PERIOD":"95.592","COUNTRY_CODE":"US","GP_ID":"205643090","SITE":"AFETR","CENTER_NAME":"EARTH","TLE_LINE2":"2 47729  53.0551 176.7802 0001612  54.9577 305.1563 15.06404872 71534","INCLINATION":"53.0551","OBJECT_TYPE":"PAYLOAD","EPHEMERIS_TYPE":"0","LAUNCH_DATE":"2021-03-04","MEAN_MOTION":"15.06404872","ECCENTRICITY":"0.00016120","MEAN_ANOMALY":"305.1563","PERIAPSIS":"546.082","NORAD_CAT_ID":"47729","TIME_SYSTEM":"UTC"},{"MEAN_MOTION":"15.06398853","ECCENTRICITY":"0.00018170","MEAN_ANOMALY":"310.5313","PERIAPSIS":"545.959","NORAD_CAT_ID":"47730","TIME_SYSTEM":"UTC","GP_ID":"205633999","SITE":"AFETR","CENTER_NAME":"EARTH","TLE_LINE2":"2 47730  53.0545 247.5103 0001817  49.5834 310.5313 15.06398853 71144","INCLINATION":"53.0545","OBJECT_TYPE":"PAYLOAD","EPHEMERIS_TYPE":"0","LAUNCH_DATE":"2021-03-04","OBJECT_ID":"2021-017J","REF_FRAME":"TEME","DECAY_DATE":null,"REV_AT_EPOCH":"7114","CLASSIFICATION_TYPE":"U","FILE":"3485745","ARG_OF_PERICENTER":"49.5834","PERIOD":"95.592","COUNTRY_CODE":"US","MEAN_MOTION_DDOT":"0.0000000000000","RCS_SIZE":"LARGE","RA_OF_ASC_NODE":"247.5103","SEMIMAJOR_AXIS":"6925.352","MEAN_MOTION_DOT":"0.00001310","EPOCH":"2022-06-08T12:45:34.232544","ELEMENT_SET_NO":"999","TLE_LINE1":"1 47730U 21017J   22159.53164621  .00001310  00000-0  10681-3 0  9993","OBJECT_NAME":"STARLINK-2140","BSTAR":"0.00010681000000","APOAPSIS":"548.475","MEAN_ELEMENT_THEORY":"SGP4"},{"LAUNCH_DATE":"2021-03-04","EPHEMERIS_TYPE":"0","INCLINATION":"53.0543","OBJECT_TYPE":"PAYLOAD","CENTER_NAME":"EARTH","TLE_LINE2":"2 47731  53.0543 242.7757 0001747  47.9187 312.1950 15.06395111 71217","GP_ID":"205633749","SITE":"AFETR","TIME_SYSTEM":"UTC","NORAD_CAT_ID":"47731","PERIAPSIS":"546.019","MEAN_ANOMALY":"312.1950","MEAN_MOTION":"15.06395111","ECCENTRICITY":"0.00017470","MEAN_ELEMENT_THEORY":"SGP4","APOAPSIS":"548.438","OBJECT_NAME":"STARLINK-2141","BSTAR":"-0.00000621210000","TLE_LINE1":"1 47731U 21017K   22159.47129650 -.00000374  00000-0 -62121-5 0  9999","MEAN_MOTION_DDOT":"0.0000000000000","ELEMENT_SET_NO":"999","RCS_SIZE":"LARGE","SEMIMAJOR_AXIS":"6925.364","RA_OF_ASC_NODE":"242.7757","EPOCH":"2022-06-08T11:18:40.017600","MEAN_MOTION_DOT":"-0.00000374","PERIOD":"95.592","ARG_OF_PERICENTER":"47.9187","FILE":"3485745","COUNTRY_CODE":"US","CLASSIFICATION_TYPE":"U","DECAY_DATE":null,"REF_FRAME":"TEME","REV_AT_EPOCH":"7121","OBJECT_ID":"2021-017K"},{"REF_FRAME":"TEME","DECAY_DATE":null,"REV_AT_EPOCH":"7179","OBJECT_ID":"2021-017L","FILE":"3486022","ARG_OF_PERICENTER":"74.2491","PERIOD":"95.748","COUNTRY_CODE":"US","CLASSIFICATION_TYPE":"U","TLE_LINE1":"1 47732U 21017L   22159.70288241 -.00001245  00000-0 -69555-4 0  9993","MEAN_MOTION_DDOT":"0.0000000000000","MEAN_MOTION_DOT":"-0.00001245","RCS_SIZE":"LARGE","SEMIMAJOR_AXIS":"6932.873","EPOCH":"2022-06-08T16:52:09.040224","RA_OF_ASC_NODE":"156.9035","ELEMENT_SET_NO":"999","APOAPSIS":"555.712","MEAN_ELEMENT_THEORY":"SGP4","OBJECT_NAME":"STARLINK-2142","BSTAR":"-0.00006955500000","PERIAPSIS":"553.763","MEAN_ANOMALY":"285.8652","MEAN_MOTION":"15.03948412","ECCENTRICITY":"0.00014050","TIME_SYSTEM":"UTC","NORAD_CAT_ID":"47732","CENTER_NAME":"EARTH","TLE_LINE2":"2 47732  53.0554 156.9035 0001405  74.2491 285.8652 15.03948412 71790","GP_ID":"205639946","SITE":"AFETR","LAUNCH_DATE":"2021-03-04","EPHEMERIS_TYPE":"0","INCLINATION":"53.0554","OBJECT_TYPE":"PAYLOAD"},{"EPHEMERIS_TYPE":"0","LAUNCH_DATE":"2021-03-04","INCLINATION":"53.0557","OBJECT_TYPE":"PAYLOAD","CENTER_NAME":"EARTH","TLE_LINE2":"2 47733  53.0557 252.5197 0001865  50.9534 309.1621 15.06394956 71129","GP_ID":"205634748","SITE":"AFETR","TIME_SYSTEM":"UTC","NORAD_CAT_ID":"47733","MEAN_ANOMALY":"309.1621","PERIAPSIS":"545.937","MEAN_MOTION":"15.06394956","ECCENTRICITY":"0.00018650","APOAPSIS":"548.521","MEAN_ELEMENT_THEORY":"SGP4","OBJECT_NAME":"STARLINK-2143","BSTAR":"0.00000394880000","TLE_LINE1":"1 47733U 21017M   22159.52566366 -.00000223  00000-0  39488-5 0  9998","MEAN_MOTION_DDOT":"0.0000000000000","RCS_SIZE":"LARGE","RA_OF_ASC_NODE":"252.5197","SEMIMAJOR_AXIS":"6925.364","MEAN_MOTION_DOT":"-0.00000223","EPOCH":"2022-06-08T12:36:57.340224","ELEMENT_SET_NO":"999","FILE":"3485745","ARG_OF_PERICENTER":"50.9534","PERIOD":"95.592","COUNTRY_CODE":"US","CLASSIFICATION_TYPE":"U","DECAY_DATE":null,"REF_FRAME":"TEME","REV_AT_EPOCH":"7112","OBJECT_ID":"2021-017M"},{"MEAN_MOTION":"15.06401376","ECCENTRICITY":"0.00015190","MEAN_ANOMALY":"289.9014","PERIAPSIS":"546.157","NORAD_CAT_ID":"47734","TIME_SYSTEM":"UTC","GP_ID":"205633499","SITE":"AFETR","CENTER_NAME":"EARTH","TLE_LINE2":"2 47734  53.0560 242.7423 0001519  70.2138 289.9014 15.06401376 71225","INCLINATION":"53.0560","OBJECT_TYPE":"PAYLOAD","EPHEMERIS_TYPE":"0","LAUNCH_DATE":"2021-03-04","OBJECT_ID":"2021-017N","REF_FRAME":"TEME","DECAY_DATE":null,"REV_AT_EPOCH":"7122","CLASSIFICATION_TYPE":"U","PERIOD":"95.592","ARG_OF_PERICENTER":"70.2138","FILE":"3485745","COUNTRY_CODE":"US","MEAN_MOTION_DDOT":"0.0000000000000","ELEMENT_SET_NO":"999","RCS_SIZE":"LARGE","SEMIMAJOR_AXIS":"6925.344","EPOCH":"2022-06-08T11:29:16.551456","MEAN_MOTION_DOT":"-0.00000375","RA_OF_ASC_NODE":"242.7423","TLE_LINE1":"1 47734U 21017N   22159.47866379 -.00000375  00000-0 -62473-5 0  9999","OBJECT_NAME":"STARLINK-2144","BSTAR":"-0.00000624730000","MEAN_ELEMENT_THEORY":"SGP4","APOAPSIS":"548.261"},{"NORAD_CAT_ID":"47735","TIME_SYSTEM":"UTC","ECCENTRICITY":"0.00019960","MEAN_MOTION":"15.03958163","MEAN_ANOMALY":"305.5567","PERIAPSIS":"553.324","OBJECT_TYPE":"PAYLOAD","INCLINATION":"53.0552","EPHEMERIS_TYPE":"0","LAUNCH_DATE":"2021-03-04","SITE":"AFETR","GP_ID":"205634249","TLE_LINE2":"2 47735  53.0552 168.0690 0001996  54.5607 305.5567 15.03958163 72247","CENTER_NAME":"EARTH","CLASSIFICATION_TYPE":"U","COUNTRY_CODE":"US","FILE":"3485745","PERIOD":"95.747","ARG_OF_PERICENTER":"54.5607","OBJECT_ID":"2021-017P","REV_AT_EPOCH":"7224","REF_FRAME":"TEME","DECAY_DATE":null,"BSTAR":"0.00007335800000","OBJECT_NAME":"STARLINK-2146","APOAPSIS":"556.091","MEAN_ELEMENT_THEORY":"SGP4","RA_OF_ASC_NODE":"168.0690","RCS_SIZE":"LARGE","SEMIMAJOR_AXIS":"6932.843","EPOCH":"2022-06-08T10:03:10.646208","MEAN_MOTION_DOT":"0.00000748","ELEMENT_SET_NO":"999","MEAN_MOTION_DDOT":"0.0000000000000","TLE_LINE1":"1 47735U 21017P   22159.41887322  .00000748  00000-0  73358-4 0  9990"},{"MEAN_ANOMALY":"295.0876","PERIAPSIS":"546.025","ECCENTRICITY":"0.00017320","MEAN_MOTION":"15.06396505","TIME_SYSTEM":"UTC","NORAD_CAT_ID":"47736","TLE_LINE2":"2 47736  53.0553 232.8923 0001732  65.0293 295.0876 15.06396505 71394","CENTER_NAME":"EARTH","SITE":"AFETR","GP_ID":"205634500","LAUNCH_DATE":"2021-03-04","EPHEMERIS_TYPE":"0","OBJECT_TYPE":"PAYLOAD","INCLINATION":"53.0553","REV_AT_EPOCH":"7139","REF_FRAME":"TEME","DECAY_DATE":null,"OBJECT_ID":"2021-017Q","COUNTRY_CODE":"US","FILE":"3485745","ARG_OF_PERICENTER":"65.0293","PERIOD":"95.592","CLASSIFICATION_TYPE":"U","TLE_LINE1":"1 47736U 21017Q   22159.44641614 -.00000896  00000-0 -41289-4 0  9990","RA_OF_ASC_NODE":"232.8923","RCS_SIZE":"LARGE","SEMIMAJOR_AXIS":"6925.359","MEAN_MOTION_DOT":"-0.00000896","EPOCH":"2022-06-08T10:42:50.354496","ELEMENT_SET_NO":"999","MEAN_MOTION_DDOT":"0.0000000000000","APOAPSIS":"548.424","MEAN_ELEMENT_THEORY":"SGP4","BSTAR":"-0.00004128900000","OBJECT_NAME":"STARLINK-2147"},{"FILE":"3485745","ARG_OF_PERICENTER":"36.0299","PERIOD":"94.094","COUNTRY_CODE":"US","CLASSIFICATION_TYPE":"U","REF_FRAME":"TEME","DECAY_DATE":null,"REV_AT_EPOCH":"7252","OBJECT_ID":"2021-017R","APOAPSIS":"476.285","MEAN_ELEMENT_THEORY":"SGP4","OBJECT_NAME":"STARLINK-2148","BSTAR":"-0.00004993300000","TLE_LINE1":"1 47737U 21017R   22159.26976600 -.00001848  00000-0 -49933-4 0  9999","MEAN_MOTION_DDOT":"0.0000000000000","RCS_SIZE":"LARGE","RA_OF_ASC_NODE":"151.2283","SEMIMAJOR_AXIS":"6852.822","MEAN_MOTION_DOT":"-0.00001848","EPOCH":"2022-06-08T06:28:27.782400","ELEMENT_SET_NO":"999","TIME_SYSTEM":"UTC","NORAD_CAT_ID":"47737","PERIAPSIS":"473.089","MEAN_ANOMALY":"324.0858","MEAN_MOTION":"15.30377603","ECCENTRICITY":"0.00023320","EPHEMERIS_TYPE":"0","LAUNCH_DATE":"2021-03-04","INCLINATION":"53.0567","OBJECT_TYPE":"PAYLOAD","CENTER_NAME":"EARTH","TLE_LINE2":"2 47737  53.0567 151.2283 0002332  36.0299 324.0858 15.30377603 72528","GP_ID":"205635249","SITE":"AFETR"}];
